#dP2021 10 16  0  0  0.00000000      96 __u+U ITR00 FIT  IAC
## 2179 518400.00000000   900.00000000 59503 0.0000000000000
+  127   C01C02C03C04C05C06C07C08C09C10C11C12C13C14C16C19C20
+        C21C22C23C24C25C26C27C28C29C30C32C33C34C35C36C37C38
+        C39C40C41C42C43C44C45C46C59C60E01E02E03E04E05E07E08
+        E09E11E12E13E14E15E18E19E21E24E25E26E27E30E31E33E36
+        G01G02G03G04G05G06G07G08G09G10G12G13G14G15G16G17G18
+        G19G20G21G22G23G24G25G26G27G28G29G30G31G32J01J02J03
+        J07R01R02R03R04R05R06R07R08R09R10R11R12R13R14R15R16
+        R17R18R19R20R21R22R23R24  0  0  0  0  0  0  0  0  0
++         0  0  0  0  0  0  0  0  0  0  0  0  0  0  0  0  0
++         0  0  0  0  0  0  0  0  0  0  0  0  0  0  0  0  0
++         0  0  0  0  0  0  0  0  0  0  0  0  0  0  0  0  0
++         0  0  0  0  0  0  0  0  0  0  0  0  0  0  0  0  0
++         0  0  0  0  0  0  0  0  0  0  0  0  0  0  0  0  0
++         0  0  0  0  0  0  0  0  0  0  0  0  0  0  0  0  0
++         0  0  0  0  0  0  0  0  0  0  0  0  0  0  0  0  0
++         0  0  0  0  0  0  0  0  0  0  0  0  0  0  0  0  0
%c M  cc GPS ccc cccc cccc cccc cccc ccccc ccccc ccccc ccccc
%c cc cc ccc ccc cccc cccc cccc cccc ccccc ccccc ccccc ccccc
%f  0.0000000  0.000000000  0.00000000000  0.000000000000000
%f  0.0000000  0.000000000  0.00000000000  0.000000000000000
%i    0    0    0    0      0      0      0      0         0
%i    0    0    0    0      0      0      0      0         0
/* INFORMATION & ANALYSIS CENTER (IAC)            RAPID DATA
/* S/V CLOCKS ARE ALIGNED TO GNSS TIME                      
/* G:C1WC2W R:C1PC2P E:C1XC5X C:C2IC6I J:C1CC2S             
/* PCV:IGS14_2163 OL/AL:FES2004  NONE     YN ORB:CoN CLK:CoN
*  2021 10 16 19  0  0.00000000
PC01 -34291.891929  24548.345541    170.549872   -536.984851
PC02   4291.009694  41904.213287   -778.128755    244.227500
PC03 -14772.246432  39457.555079   -217.888038     -2.657907
PC04 -39591.776935  14481.587694    505.176771    223.754633
PC05  21857.333027  36022.961252  -1165.229905    270.163550
PC06  -1323.644896  30174.503549 -29363.451327    344.914056
PC07 -17287.628903  28143.453256  26152.689169   -221.810355
PC08 -11829.740622  40556.594514     67.215677   -858.344258
PC09   6123.664491  33927.283500 -23640.325112   -189.574044
PC10  -8026.998378  28557.913533  30080.676575      7.058346
PC11  16265.879670  -3196.449080 -22392.050049    634.853223
PC12  21271.840606  13901.898680 -11528.600158    738.395608
PC13  -6877.187567  41262.829951  -6278.496929    444.219900
PC14  26165.216013  -8408.969972   5010.813000    582.952986
PC16  -4354.906612  27604.460002 -31366.992977   -761.488686
PC19 -20303.702117  13382.995220 -13663.740176    947.877555
PC20 -27573.378587   3233.779401   2705.568968   -793.017076
PC21  18728.887731   9470.128653 -18394.303761   -931.960203
PC22   -979.401014  16157.978676 -22737.397445   -958.468212
PC23   3650.157283 -26521.555698  -7854.522095   -970.899587
PC24  17529.580037  -3174.575394  21470.952538   -972.977646
PC25  14277.913771 -22175.402741   9080.867916   -839.046316
PC26  10634.408753  15181.753139  20864.989858    835.247263
PC27 -19132.093752 -20112.690865   2893.938727    614.218422
PC28  -6474.088117 -23187.302084 -14098.942173    -14.090573
PC29  -9503.892974  13030.810494  22768.390707    461.384808
PC30 -20934.037538  -5055.409324  17751.448283    483.653126
PC32 -18722.914412  -9390.909598  18442.252039   -967.382406
PC33  20313.559380 -13483.193874  13583.189278   -968.386108
PC34  20670.533529   4213.934752 -18267.737627   -558.378527
PC35   6863.897046  22878.518703  14402.805680    -43.294399
PC36 -14949.367342  21591.097034  -9419.175303   -780.293705
PC37  -9674.905311 -16283.216056 -20464.784362   -875.613464
PC38 -16054.293259  38206.002239   8262.308622    182.731757
PC39  -8866.747698  23852.618569 -33602.686715     33.652943
PC40 -23865.200762  22150.103254  26706.387038    209.066547
PC41   1360.935331 -16261.409266  22676.929021   -922.682936
PC42  27555.619927  -2706.702152  -3499.647802   -959.673431
PC43  10131.993431 -12583.648789 -22760.484566   -962.636041
PC44  19747.040306  19511.381737  -2714.380310    433.854138
PC45  -3507.266654  26496.464046   8076.734709    575.592031
PC46 -17622.835678   4660.721684 -21130.496710     36.750301
PC59      0.000000      0.000000      0.000000 999999.999999
PC60   7335.551974  41510.487664   1274.626903     -0.601738
PE01 -24138.331307  15962.211316  -6230.500730   -496.873498
PE02  24105.805312 -16039.249698   6114.857896    253.908169
PE03  23075.498028  -5657.521946  17653.992839   -485.820429
PE04  -4609.101420  16463.107292 -24165.864908   -879.178724
PE05  28299.797462   8654.505447    663.315968   -241.268648
PE07 -16981.355091 -17751.580847  16505.337980   -596.731753
PE08   4067.503538 -16470.255984  24249.729643   5920.566148
PE09  17284.795699  17545.606329 -16432.556732   5496.039687
PE11  10569.448747  26757.474066  -6967.382104   5254.279381
PE12  -2381.623426  26750.558796  12439.729854   4957.452902
PE13 -10341.092763 -26968.411020   6463.898673    422.667746
PE14  28628.801515   5737.090093 -11680.998149  -1607.168901
PE15   2285.170026 -26729.608863 -12495.949054    786.385802
PE18 -22184.343372 -11316.619314   2384.887226  -1765.299026
PE19 -24569.870938   3824.996576 -16063.600805    403.815468
PE21 -21170.423987    221.663344 -20680.908299   -694.018622
PE24   4810.341648  17219.313543  23591.405825  -1174.636072
PE25  21050.402623     13.848594  20821.040196   -550.266693
PE26 -17009.328541 -10274.874755  21935.667498   1222.290453
PE27  -5887.346502 -16459.823244 -23873.771489   -143.710559
PE30  13814.058765 -23265.147215 -11985.239168   2535.114105
PE31 -12730.537534  23345.070241  13024.592750   -486.857862
PE33 -13527.770859  10747.771068  24038.698284   -463.673218
PE36  16831.863659  11355.311791 -21537.831400   -276.913572
PG01 -13197.037245   9809.995617  20500.935325    537.515401
PG02  13670.149729  14393.859629 -16953.026115   -637.744699
PG03 -23227.617000  12298.485869   3332.141651   -327.267033
PG04 -19237.896718   3670.157960 -17971.972293   -203.567191
PG05  21563.455374  -1664.538216 -15685.259353    -57.882027
PG06   6087.790312  24719.901937  -7404.642222     96.044955
PG07  -6490.630228  23078.452987 -10507.529687    263.478346
PG08 -24584.562411  -4926.018657   9222.125203    -40.349568
PG09  -8677.125217  12844.557186 -21641.348593   -361.838117
PG10   2836.447132 -17795.804325  19531.681888   -225.327999
PG12  24128.218317  -9982.680904   4197.923519   -112.492908
PG13  22979.114111  12963.817317   3557.417019    200.539444
PG14  -3565.672914  17912.457577  19264.096913    -20.194745
PG15  24963.258922   2095.087440   8918.678959   -113.483224
PG16 -19648.178175  -3559.790466 -17989.466117   -408.134440
PG17   4871.720478  17961.390970  19381.822170    520.082019
PG18   5834.036881 -24041.082396  -9543.123457    309.339122
PG19  13536.158606  18981.752493  12610.691078     66.715637
PG20  14341.515953   7753.171175 -20952.728118    518.606635
PG21 -15645.440496    338.199498  22170.083523    147.909283
PG22 -22746.112450   7582.800335  11374.185499   -487.724789
PG23  13960.326545 -19315.283276  11618.131973     44.347126
PG24  14991.989299  -5098.605237  21018.981465    254.530820
PG25  19535.661958 -17082.154230  -5192.787364    225.454763
PG26  -9048.233118 -12825.344130 -21483.941836    145.552302
PG27 -23651.553848 -12524.608344   -544.368781   -207.072495
PG28   3319.076199  15277.465138  22040.113783    481.307368
PG29  12519.809819  -9213.230677 -21586.726270   -427.172578
PG30    663.856275  26420.480733   -121.056715   -482.948418
PG31  -7405.937140 -23399.342996  -9626.865272   -145.271963
PG32  -9629.049656 -18215.442347  16975.252624    -10.901740
PJ01 -33011.964944  15119.795781 -16861.927973    169.637806
PJ02 -28177.522712  31433.889734   3504.425718     -3.568130
PJ03 -25826.670578  22651.999369  29516.648190     -3.944860
PJ07      0.000000      0.000000      0.000000 999999.999999
PR01  16896.622818   8053.612517 -17340.886855     86.776197
PR02  25437.077200   -360.247072   1342.902810    496.884085
PR03  17147.562640  -8051.086550  17086.213239     44.802405
PR04   -562.016230 -10834.222366  23105.337215    109.699488
PR05 -18001.025752  -7818.815396  16313.207891     80.800974
PR06 -25369.199187   1614.440620  -2302.162788    -10.087956
PR07 -16700.286040   8202.811599 -17445.405932    -40.598152
PR08    610.801531  10927.148217 -22992.974877    -61.510659
PR09 -14947.490430   7152.089970 -19345.271014     18.595342
PR10 -14697.618802  19892.753284  -6390.923345    -76.055302
PR11  -6063.550773  21945.204227  11504.141800     49.882067
PR12   6364.965214  10409.928698  22433.896251    270.603405
PR13  14543.474789  -6421.491744  19937.486804    -62.204190
PR14  14520.432939 -20342.391941   5157.161758     69.982793
PR15   5918.829715 -21705.869957 -11996.316592    100.808116
PR16  -7602.840488  -9066.518989 -22600.251889    -23.279910
PR17   5427.071099 -10996.361388 -22349.609924    466.883993
PR18  -5854.037656 -21673.361023 -12134.866329     93.995568
PR19 -13094.137231 -21596.248665   3528.370804   -163.369469
PR20 -13874.356460  -7284.073539  20146.304058    -57.669322
PR21  -4504.588939  12165.635118  21971.594816   -247.261541
PR22   6306.097080  21925.309277  11308.251103   -139.312906
PR23  15000.768545  18150.867221  -9824.696285    -16.755016
PR24  14177.829055   6138.899768 -20287.190931     62.971418
EOF
